[{"OBJECT_NAME":"SUPERVIEW-1 03","OBJECT_ID":"2018-002A","EPOCH":"2026-03-09T22:14:33.880992","MEAN_MOTION":15.35916978,"ECCENTRICITY":0.00509393,"INCLINATION":97.3162,"RA_OF_ASC_NODE":154.1458,"ARG_OF_PERICENTER":177.0269,"MEAN_ANOMALY":183.1288,"EPHEMERIS_TYPE":0,"CLASSIFICATION_TYPE":"U","NORAD_CAT_ID":43099,"ELEMENT_SET_NO":999,"REV_AT_EPOCH":45311,"BSTAR":0.00062641306,"MEAN_MOTION_DOT":0.00022818,"MEAN_MOTION_DDOT":0},{"OBJECT_NAME":"STARLINK-33619","OBJECT_ID":"2025-057T","EPOCH":"2026-03-09T07:18:21.579552","MEAN_MOTION":15.2759435,"ECCENTRICITY":0.0001968,"INCLINATION":43.0033,"RA_OF_ASC_NODE":32.5765,"ARG_OF_PERICENTER":250.6607,"MEAN_ANOMALY":109.4032,"EPHEMERIS_TYPE":0,"CLASSIFICATION_TYPE":"U","NORAD_CAT_ID":63324,"ELEMENT_SET_NO":999,"REV_AT_EPOCH":5572,"BSTAR":0.00092208149,"MEAN_MOTION_DOT":0.0002521,"MEAN_MOTION_DDOT":0}]
